#dP2023  2 16  0  0  0.00000000      96 __u+U IGS14 FIT  IAC
## 2249 345600.00000000   900.00000000 59991 0.0000000000000
+  120   C06C07C08C09C10C11C12C13C14C16C19C20C21C22C23C24C25
+        C26C27C28C29C30C32C33C34C35C36C37C38C39C40C41C42C43
+        C44C45C46E01E02E03E04E05E07E08E09E10E11E12E13E14E15
+        E18E19E21E24E25E26E27E30E31E33E34E36G01G02G03G04G05
+        G06G07G08G09G10G11G12G13G14G15G16G17G18G19G20G21G22
+        G23G24G25G26G27G28G29G30G31G32J02J03J04R01R02R03R04
+        R05R07R08R09R11R12R13R14R15R16R17R18R19R20R21R22R24
+        R25  0  0  0  0  0  0  0  0  0  0  0  0  0  0  0  0
++         9  9  9  9  9  9  9  9  9 10  8  8  8  8  7  8  8
++         8  8  8  8  8  8  8  8  8  8  7  8  9  8  8  8  8
++         8  8  8  4  4  4  4  4  4  4  4  4  5  4  4  5  4
++         4  4  4  4  5  4  4  4  4  4  5  5  4  4  3  4  4
++         3  4  4  4  3  3  3  4  3  4  5  3  4  3  4  4  3
++         4  3  3  4  4  4  4  4  3  3 11 11 12  8  7  7  7
++         7  7  7  7  7  7  8  6  7  7  7  6  8  8  7  7  6
++         8  0  0  0  0  0  0  0  0  0  0  0  0  0  0  0  0
%c M  cc GPS ccc cccc cccc cccc cccc ccccc ccccc ccccc ccccc
%c cc cc ccc ccc cccc cccc cccc cccc ccccc ccccc ccccc ccccc
%f  1.2500000  1.025000000  0.00000000000  0.000000000000000
%f  0.0000000  0.000000000  0.00000000000  0.000000000000000
%i    0    0    0    0      0      0      0      0         0
%i    0    0    0    0      0      0      0      0         0
/* INFORMATION & ANALYSIS CENTER (IAC)            FINAL DATA
/* S/V CLOCKS ARE ALIGNED TO GNSS TIME                      
/* G:C1WC2W R:C1PC2P E:C1XC5X C:C2IC6I J:C1CC2S             
/* PCV:IGS20_2247 OL/AL:FES2004  NONE     YN ORB:CoN CLK:CoN
*  2023 02 16  2  0  0.00000000
PC06 -13499.529498  23598.474251  32168.336779   -191.368866
PC07 -13521.169888  39971.468232  -2030.988885    107.726083
PC08   1853.125384  31214.998021 -28169.891266    525.781821
PC09  -3279.874468  24552.433801  34482.852903    692.728266
PC10  -8491.430139  40800.412103  -7672.311553     10.393400
PC11   8373.099949 -15867.910005  21438.873388   -118.178304
PC12  24254.608386 -10634.905325   8834.549608    455.222670
PC13   6246.666964  34003.116052 -23779.547526    208.835961
PC14   6619.044134 -26932.980164  -2795.934833    485.220430
PC16 -15227.291139  22933.779943  32055.978437    161.263129
PC19    290.155465  25327.015510  11763.391743   -894.578748
PC20 -11497.741378  24977.287102  -4829.989321    721.698264
PC21  17262.924519  -9395.152464  19823.050827   -910.800528
PC22  12458.520426  11116.501076  22367.433184   -630.702279
PC23 -20807.104066 -17979.975811   4766.548771   -878.002574
PC24   8504.455938 -14558.165323 -22260.681166   -405.235765
PC25 -10326.843377 -23160.434043 -11687.823701     72.764883
PC26  19951.531902    698.701307 -19502.015699    -79.374033
PC27 -27267.830149   5869.673995   -518.143798     97.430126
PC28 -22629.140727  -6147.246340  15132.086610     70.970232
PC29   4063.989201  15429.328915 -22899.514367     81.672687
PC30 -16916.795842  15488.320267 -15883.469712      1.140434
PC32 -17185.727580   9495.430282 -19813.983842   -620.922848
PC33   -365.668893 -25353.221725 -11630.860913   -872.995079
PC34  15827.845936 -15809.432492  16688.744934    107.092883
PC35  22085.640175   6160.330848 -15947.086044    679.789860
PC36   9183.012936  23327.847187  12260.093899   -622.376888
PC37 -20524.384295  -2609.302397  18743.236158   -820.186159
PC38  -6253.217565  26943.674473 -31730.269738     59.085188
PC39 -21959.953074  22172.601103  28274.327359     -1.826037
PC40 -20029.530737  37235.109403    158.223726    -15.220988
PC41 -12200.785461 -11705.049904 -22144.050267   -617.187820
PC42  12179.068442 -24346.173165   6139.055764   -834.540295
PC43  -3088.740353 -15770.248845  22806.510445      7.392713
PC44  27103.896042  -6723.202136    280.094269     16.750529
PC45  20901.103090  17724.353381  -5199.865535    -60.995187
PC46  -6929.448070  15736.527167  21962.222018    -33.726049
PE01 -17023.648468   -923.371345  24193.012684   -600.533476
PE02  16965.648327    361.356477 -24260.085267     21.062084
PE03  24749.815865  -8725.181304  13684.893952   -650.446517
PE04 -20152.918799  21284.049814   4119.419546    -59.215252
PE05  14882.260915   9271.597696  23852.048572    -94.936540
PE07   3654.279077 -21627.171237 -19868.641128    -23.240754
PE08  20218.167626 -21245.753821  -3975.765710    -36.780050
PE09  -3879.941274  21620.837318  19848.194553   -837.639933
PE10  -4705.287420  15318.948783 -24888.746126   -512.705211
PE11   7387.036564  17888.551542 -22406.915750    902.149602
PE12 -14954.007271  10734.238838 -23171.905480   -423.866843
PE13  -6434.229313 -17716.146361  22827.327852     -0.286669
PE14 -24180.735808  19403.272762  -3006.719200    143.424422
PE15  15275.583497 -10489.550066  23094.736996     -1.421517
PE18  22777.345520  -9887.438030  -5010.035824   -385.851025
PE19 -24205.955379   6391.186715 -15779.816784  -3224.186769
PE21 -14906.415155 -19988.349897  15952.218802   -512.407429
PE24   3459.897141  29246.459929   2790.919353  -1116.564453
PE25  14795.909038  20240.524521 -15725.546590   -599.474516
PE26 -24558.970179 -14234.488919   8392.356944     19.661684
PE27  -4125.951776 -29251.961294  -2012.926680   -513.341220
PE30   9482.061450 -20646.371957 -19000.493559  -1246.009382
PE31  -8981.447161  21183.135831  18616.470605   -516.151869
PE33 -27800.766829  -2881.078624  -9718.245400   -451.866857
PE34  27771.662500   2712.628841   9874.475047    -30.318959
PE36  24137.819646  14478.322743  -9176.956659    -13.067530
PG01  21272.528093  14564.664520  -7429.473081    212.078197
PG02 -23366.386317 -11426.724983   5331.140339   -620.555902
PG03  12431.179636  18181.081394  14806.610722   -362.587136
PG04  14967.659699   7104.344030  20790.723944    -26.589211
PG05  -5402.288148 -25918.123561  -1188.125643   -116.068700
PG06  14055.384835  -8903.275590  20794.310953    572.862401
PG07  25364.427930   6314.547208  -5564.421062    240.226342
PG08   4281.139287  15521.476047 -21112.728713   -108.696871
PG09  21548.609791  -3622.908844  15056.920963   -217.434633
PG10 -11862.362552  12601.347938 -19878.983571    -24.880983
PG11     99.033463 -16155.099561  21098.680671   -105.379574
PG12 -10444.063499 -20321.567249  13346.878463   -340.852011
PG13   4615.445208 -17802.293840 -19266.151096    476.777634
PG14  13791.687678  -9714.976216 -20480.250132    -26.124600
PG15  -6782.741559 -15321.568562 -21014.035321     13.826404
PG16    668.760554  26280.888518    586.906694   -519.878450
PG17  22915.922556 -13157.458367  -2736.550605    700.302285
PG18 -24526.741329  -3463.094347  -9778.773831   -142.428769
PG19  18964.232562 -16976.565740   6845.263523    278.274100
PG20    270.221533 -24605.799047  10298.197505    450.455034
PG21  16579.405362  15465.302231 -13885.682466    154.024423
PG22 -15768.707629  18759.879981  10453.791090    427.897581
PG23 -15118.179526   -208.264200 -21841.455409      6.341647
PG24 -19173.127024 -14993.365756 -11466.129550    -75.506792
PG25 -14981.988306 -11072.149174  18724.702726    420.460941
PG26  -6115.725776  21626.608303  13771.061793    241.528138
PG27  -7138.169027  19661.535620 -16348.232734    101.392989
PG28 -15719.308786   8673.990569  19537.661688     14.096852
PG29 -20194.734171   -690.514726  17229.725395   -586.339903
PG30  20726.466429  -4088.191996 -16156.026823   -530.153553
PG31 -12877.715449  10352.179923  20714.377241   -209.351709
PG32 -21135.601679  15879.754107   -663.839546   -397.434197
PJ02 -27358.369604  24418.110787  25841.706048     -0.897829
PJ03 -32591.717632  16914.426697 -16108.555884      0.282369
PJ04 -20577.069118  33919.492048  -8993.113935     94.278546
PR01  14026.160505 -20083.529884   7100.197181     23.124552
PR02   5979.776244 -21985.954030 -11491.441119    -23.257702
PR03  -5918.943592 -11063.377115 -22170.206570     72.578038
PR04 -14060.174090   5829.755086 -20433.050992    175.965957
PR05 -14722.666491  19410.158091  -7501.362637    107.829284
PR07   6506.871243  10250.484365  22468.523173     50.019567
PR08  14210.457459  -6019.324982  20381.072060    -69.471752
PR09   6954.168987  21500.299704  11920.244494    104.342807
PR11  15460.053298   7684.973375 -18777.182150     -5.280137
PR12   6023.496802 -10618.543933 -22381.951774     25.043440
PR13  -5668.002725 -20902.461631 -13503.667904    -32.062586
PR14 -15383.478570 -19677.634824   5148.909912     24.347671
PR15 -15165.166682  -6713.394155  19392.660476     91.048278
PR16  -6059.080237  10288.705460  22546.091922     11.337981
PR17 -17733.048357  -7265.418699  16863.690317    605.252513
PR18 -25412.546015   -457.197039   1779.790568     67.027359
PR19 -21100.148953   5555.525651 -13206.697736   -222.047918
PR20  -1500.375909  10300.113997 -23274.560931    -87.765479
PR21  18969.226851   6740.829854 -15650.373805   -373.647025
PR22  25486.154020    963.601280   -825.664125     71.163571
PR24    487.296904 -10834.595956  23106.763477    147.144361
PR25  17077.391632   8418.031417 -16960.483698     55.205948
EOF
